NORAD_CAT_ID,OBJECT_NAME,OBJECT_TYPE,EPOCH,MEAN_MOTION,ECCENTRICITY,INCLINATION,RA_OF_ASC_NODE,ARG_OF_PERICENTER,MEAN_ANOMALY,BSTAR,MEAN_MOTION_DOT,MEAN_MOTION_DDOT,TLE_LINE0,TLE_LINE1,TLE_LINE2,SEMIMAJOR_AXIS,PERIOD,APOGEE,PERIGEE,DECAYED
54101.0,STARLINK-5204,PAYLOAD,2023-12-27 21:31:40,15.0883414,0.0001477,53.2188,322.7481,115.2342,244.8804,1.2131e-05,-9.5e-07,0.0,0 STARLINK-5204,1 54101U 22136BC  23361.89699162 -.00000095  00000-0  12131-4 0  9997,2 54101  53.2188 322.7481 0001477 115.2342 244.8804 15.08834140 66000,6917.898,95.438,540.785,538.742,0.0
54101.0,STARLINK-5204,PAYLOAD,2023-12-28 03:53:12,15.08840855,0.0001677,53.2184,321.5637,121.9641,238.1515,0.00011556,1.552e-05,0.0,0 STARLINK-5204,1 54101U 22136BC  23362.16194870  .00001552  00000-0  11556-3 0  9991,2 54101  53.2184 321.5637 0001677 121.9641 238.1515 15.08840855 66515,6917.878,95.438,540.903,538.583,0.0
54101.0,STARLINK-5204,PAYLOAD,2023-12-28 07:03:58,15.08842003,0.0001526,53.2179,320.97,110.1743,249.9414,0.00013622,1.881e-05,0.0,0 STARLINK-5204,1 54101U 22136BC  23362.29443143  .00001881  00000-0  13622-3 0  9996,2 54101  53.2179 320.9700 0001526 110.1743 249.9414 15.08842003 66064,6917.874,95.437,540.795,538.684,0.0
54101.0,STARLINK-5204,PAYLOAD,2023-12-29 06:54:45,15.08852276,0.0001503,53.2184,316.5106,98.418,261.6982,0.00028703,4.285e-05,0.0,0 STARLINK-5204,1 54101U 22136BC  23363.28802706  .00004285  00000-0  28703-3 0  9997,2 54101  53.2184 316.5106 0001503  98.4180 261.6982 15.08852276 66681,6917.843,95.437,540.748,538.668,0.0
54101.0,STARLINK-5204,PAYLOAD,2023-12-30 03:34:46,15.08840357,0.0001383,53.2176,312.643,102.2837,257.831,8.0677e-05,9.96e-06,0.0,0 STARLINK-5204,1 54101U 22136BC  23364.14915132  .00000996  00000-0  80677-4 0  9995,2 54101  53.2176 312.6430 0001383 102.2837 257.8310 15.08840357 66812,6917.879,95.438,540.701,538.788,0.0
54101.0,STARLINK-5204,PAYLOAD,2023-12-30 19:28:38,15.08835702,0.0001386,53.2182,309.6691,93.7398,266.3753,2.1552e-05,5.5e-07,0.0,0 STARLINK-5204,1 54101U 22136BC  23364.81155531  .00000055  00000-0  21552-4 0  9991,2 54101  53.2182 309.6691 0001386  93.7398 266.3753 15.08835702 66918,6917.894,95.438,540.717,538.8,0.0
54101.0,STARLINK-5204,PAYLOAD,2023-12-31 01:50:10,15.08845168,0.0001193,53.2182,308.4783,92.3698,267.7431,-9.5386e-06,-4.4e-06,0.0,0 STARLINK-5204,1 54101U 22136BC  23365.07651141 -.00000440  00000-0 -95386-5 0  9995,2 54101  53.2182 308.4783 0001193  92.3698 267.7431 15.08845168 66950,6917.865,95.437,540.555,538.904,0.0
54101.0,STARLINK-5204,PAYLOAD,2024-01-01 01:40:58,15.0883466,0.0001489,53.2185,304.0258,101.6619,258.454,5.2095e-05,5.41e-06,0.0,0 STARLINK-5204,1 54101U 22136BC  24001.07011924  .00000541  00000-0  52095-4 0  9991,2 54101  53.2185 304.0258 0001489 101.6619 258.4540 15.08834660 67108,6917.897,95.438,540.792,538.732,0.0
54101.0,STARLINK-5204,PAYLOAD,2024-01-01 04:51:44,15.08837604,0.0001462,53.2186,303.4312,97.3254,262.7904,7.0849e-05,8.4e-06,0.0,0 STARLINK-5204,1 54101U 22136BC  24001.20259778  .00000840  00000-0  70849-4 0  9996,2 54101  53.2186 303.4312 0001462  97.3254 262.7904 15.08837604 66652,6917.888,95.438,540.764,538.741,0.0
54101.0,STARLINK-5204,PAYLOAD,2024-01-02 04:42:30,15.08854392,0.0001506,53.2186,298.9712,99.1772,260.9391,0.00024797,3.662e-05,0.0,0 STARLINK-5204,1 54101U 22136BC  24002.19618459  .00003662  00000-0  24797-3 0  9995,2 54101  53.2186 298.9712 0001506  99.1772 260.9391 15.08854392 67270,6917.836,95.437,540.743,538.66,0.0
54101.0,STARLINK-5204,PAYLOAD,2024-01-02 19:00:59,15.08845146,0.0001576,53.217,296.2931,97.0381,263.079,8.7617e-05,1.107e-05,0.0,0 STARLINK-5204,1 54101U 22136BC  24002.79235061  .00001107  00000-0  87617-4 0  9998,2 54101  53.2170 296.2931 0001576  97.0381 263.0790 15.08845146 67361,6917.865,95.437,540.82,538.639,0.0
54101.0,STARLINK-5204,PAYLOAD,2024-01-03 04:33:17,15.08844287,0.0001472,53.2172,294.508,89.0106,271.1054,0.00010111,1.322e-05,0.0,0 STARLINK-5204,1 54101U 22136BC  24003.18979141  .00001322  00000-0  10111-3 0  9999,2 54101  53.2172 294.5080 0001472  89.0106 271.1054 15.08844287 66952,6917.867,95.437,540.751,538.714,0.0
54101.0,STARLINK-5204,PAYLOAD,2024-01-04 02:48:41,15.08849867,0.0001471,53.217,290.3457,87.6818,272.4342,4.1557e-05,3.74e-06,0.0,0 STARLINK-5204,1 54101U 22136BC  24004.11714849  .00000374  00000-0  41557-4 0  9990,2 54101  53.2170 290.3457 0001471  87.6818 272.4342 15.08849867 67566,6917.85,95.437,540.733,538.698,0.0
54101.0,STARLINK-5204,PAYLOAD,2024-01-04 04:24:04,15.08851058,0.0001452,53.2169,290.0481,89.8077,270.3081,6.5275e-05,7.51e-06,0.0,0 STARLINK-5204,1 54101U 22136BC  24004.18338741  .00000751  00000-0  65275-4 0  9992,2 54101  53.2169 290.0481 0001452  89.8077 270.3081 15.08851058 67100,6917.847,95.437,540.716,538.707,0.0
54101.0,STARLINK-5204,PAYLOAD,2024-01-04 18:42:33,15.08836496,0.000147,53.2168,287.3713,91.7347,268.3813,1.6467e-05,-2.6e-07,0.0,0 STARLINK-5204,1 54101U 22136BC  24004.77955577 -.00000026  00000-0  16467-4 0  9994,2 54101  53.2168 287.3713 0001470  91.7347 268.3813 15.08836496 67668,6917.891,95.438,540.773,538.739,0.0
54101.0,STARLINK-5204,PAYLOAD,2024-01-05 01:04:05,15.08841036,0.000149,53.2167,286.1831,85.9377,274.1786,0.00011224,1.499e-05,0.0,0 STARLINK-5204,1 54101U 22136BC  24005.04451366  .00001499  00000-0  11224-3 0  9991,2 54101  53.2167 286.1831 0001490  85.9377 274.1786 15.08841036 67238,6917.877,95.437,540.773,538.711,0.0
54101.0,STARLINK-5204,PAYLOAD,2024-01-05 21:44:06,15.0884095,0.0001445,53.2161,282.3182,91.9826,268.1331,5.4792e-05,5.84e-06,0.0,0 STARLINK-5204,1 54101U 22136BC  24005.90563492  .00000584  00000-0  54792-4 0  9992,2 54101  53.2161 282.3182 0001445  91.9826 268.1331 15.08840950 67362,6917.877,95.437,540.742,538.743,0.0
54101.0,STARLINK-5204,PAYLOAD,2024-01-06 04:05:39,15.08844787,0.0001422,53.217,281.1277,99.0319,261.0834,6.7965e-05,7.94e-06,0.0,0 STARLINK-5204,1 54101U 22136BC  24006.17059168  .00000794  00000-0  67965-4 0  9991,2 54101  53.2170 281.1277 0001422  99.0319 261.0834 15.08844787 67873,6917.866,95.437,540.714,538.747,0.0
54101.0,STARLINK-5204,PAYLOAD,2024-01-06 18:24:08,15.08836504,0.000156,53.2175,278.4498,92.9315,267.1856,2.0091e-05,3.2e-07,0.0,0 STARLINK-5204,1 54101U 22136BC  24006.76676015  .00000032  00000-0  20091-4 0  9996,2 54101  53.2175 278.4498 0001560  92.9315 267.1856 15.08836504 67962,6917.891,95.438,540.835,538.677,0.0
54101.0,STARLINK-5204,PAYLOAD,2024-01-06 21:34:54,15.0883642,0.0001543,53.2174,277.855,96.9675,263.1493,1.2506e-05,-8.9e-07,0.0,0 STARLINK-5204,1 54101U 22136BC  24006.89923966 -.00000089  00000-0  12506-4 0  9995,2 54101  53.2174 277.8550 0001543  96.9675 263.1493 15.08836420 67518,6917.891,95.438,540.824,538.689,0.0
54101.0,STARLINK-5204,PAYLOAD,2024-01-07 03:56:26,15.08837914,0.0001555,53.2175,276.6655,94.9086,265.2083,1.2465e-05,-9e-07,0.0,0 STARLINK-5204,1 54101U 22136BC  24007.16419863 -.00000090  00000-0  12465-4 0  9998,2 54101  53.2175 276.6655 0001555  94.9086 265.2083 15.08837914 67550,6917.887,95.438,540.827,538.676,0.0
54101.0,STARLINK-5204,PAYLOAD,2024-01-07 21:25:41,15.08837537,0.0001576,53.2175,273.3938,99.1854,260.9316,6.1793e-05,6.96e-06,0.0,0 STARLINK-5204,1 54101U 22136BC  24007.89283902  .00000696  00000-0  61793-4 0  9990,2 54101  53.2175 273.3938 0001576  99.1854 260.9316 15.08837537 67665,6917.888,95.438,540.843,538.663,0.0
54101.0,STARLINK-5204,PAYLOAD,2024-01-08 22:51:51,15.08833672,0.0001546,53.2179,268.6395,105.3287,254.7876,4.9544e-05,5e-06,0.0,0 STARLINK-5204,1 54101U 22136BC  24008.95268470  .00000500  00000-0  49544-4 0  9995,2 54101  53.2179 268.6395 0001546 105.3287 254.7876 15.08833672 67826,6917.9,95.438,540.834,538.695,0.0
54101.0,STARLINK-5204,PAYLOAD,2024-01-09 22:42:38,15.08847087,0.0001821,53.2187,264.1868,126.1996,233.9165,-1.1247e-05,-4.67e-06,0.0,0 STARLINK-5204,1 54101U 22136BC  24009.94627990 -.00000467  00000-0 -11247-4 0  9994,2 54101  53.2187 264.1868 0001821 126.1996 233.9165 15.08847087 67976,6917.859,95.437,540.983,538.464,0.0
54101.0,STARLINK-5204,PAYLOAD,2024-01-10 00:18:01,15.08836842,0.0001344,53.217,263.8806,90.0702,270.0444,0.0001346,1.855e-05,0.0,0 STARLINK-5204,1 54101U 22136BC  24010.01252265  .00001855  00000-0  13460-3 0  9991,2 54101  53.2170 263.8806 0001344  90.0702 270.0444 15.08836842 68453,6917.89,95.438,540.685,538.825,0.0
54101.0,STARLINK-5204,PAYLOAD,2024-01-11 01:44:11,15.08848912,0.0001308,53.2175,259.1226,89.9408,270.1734,0.00013574,1.874e-05,0.0,0 STARLINK-5204,1 54101U 22136BC  24011.07235631  .00001874  00000-0  13574-3 0  9993,2 54101  53.2175 259.1226 0001308  89.9408 270.1734 15.08848912 68614,6917.853,95.437,540.623,538.813,0.0
54101.0,STARLINK-5204,PAYLOAD,2024-01-11 19:13:26,15.08844118,0.0001295,53.2166,255.852,91.2099,268.9042,2.323e-05,8.2e-07,0.0,0 STARLINK-5204,1 54101U 22136BC  24011.80100180  .00000082  00000-0  23230-4 0  9995,2 54101  53.2166 255.8520 0001295  91.2099 268.9042 15.08844118 68724,6917.868,95.437,540.629,538.837,0.0
54101.0,STARLINK-5204,PAYLOAD,2024-01-11 22:24:12,15.08847838,0.0001292,53.2163,255.2563,101.5775,258.5362,5.2242e-05,5.44e-06,0.0,0 STARLINK-5204,1 54101U 22136BC  24011.93347772  .00000544  00000-0  52242-4 0  9997,2 54101  53.2163 255.2563 0001292 101.5775 258.5362 15.08847838 68277,6917.856,95.437,540.615,538.828,0.0
54101.0,STARLINK-5204,PAYLOAD,2024-01-12 15:53:27,15.08837228,0.0001441,53.216,251.9891,57.549,302.5642,5.1826e-05,5.37e-06,0.0,0 STARLINK-5204,1 54101U 22136BC  24012.66212725  .00000537  00000-0  51826-4 0  9996,2 54101  53.2160 251.9891 0001441  57.5490 302.5642 15.08837228 68858,6917.889,95.438,540.751,538.757,0.0
54101.0,STARLINK-5204,PAYLOAD,2024-01-12 22:15:00,15.08836545,0.000136,53.2165,250.7984,68.8215,291.2922,-2.408e-06,-3.26e-06,0.0,0 STARLINK-5204,1 54101U 22136BC  24012.92708920 -.00000326  00000-0 -24080-5 0  9993,2 54101  53.2165 250.7984 0001360  68.8215 291.2922 15.08836545 68422,6917.891,95.438,540.697,538.815,0.0
